$$SOE
2460721.500000000, A.D. 2025-Feb-15 00:00:00.0000, -1.384303734146626E+08, -3.484943931289686E+08, -3.078273392186619E+07,
2460728.500000000, A.D. 2025-Feb-22 00:00:00.0000, -1.284907972137377E+08, -3.524730372076554E+08, -3.058454574424906E+07,
2460735.500000000, A.D. 2025-Mar-01 00:00:00.0000, -1.184342598082975E+08, -3.561309113556546E+08, -3.035851802862261E+07,
2460742.500000000, A.D. 2025-Mar-08 00:00:00.0000, -1.082700207251012E+08, -3.594650112242406E+08, -3.010488459594318E+07,
2460749.500000000, A.D. 2025-Mar-15 00:00:00.0000, -9.800738781940258E+07, -3.624725317616057E+08, -2.982389556843653E+07,
2460756.500000000, A.D. 2025-Mar-22 00:00:00.0000, -8.765571934767352E+07, -3.651508660797218E+08, -2.951581706820992E+07,
2460763.500000000, A.D. 2025-Mar-29 00:00:00.0000, -7.722442477550437E+07, -3.674976068727612E+08, -2.918093125042860E+07,
2460770.500000000, A.D. 2025-Apr-05 00:00:00.0000, -6.672296397818059E+07, -3.695105472556913E+08, -2.881953644453728E+07,
2460777.500000000, A.D. 2025-Apr-12 00:00:00.0000, -5.616084674316878E+07, -3.711876809246647E+08, -2.843194721827769E+07,
2460784.500000000, A.D. 2025-Apr-19 00:00:00.0000, -4.554763274475129E+07, -3.725272025252449E+08, -2.801849441914429E+07,
2460791.500000000, A.D. 2025-Apr-26 00:00:00.0000, -3.489293170225894E+07, -3.735275084357682E+08, -2.757952523452023E+07,
2460798.500000000, A.D. 2025-May-03 00:00:00.0000, -2.420640359131164E+07, -3.741871979503404E+08, -2.711540327899624E+07,
2460805.500000000, A.D. 2025-May-10 00:00:00.0000, -1.349775886246124E+07, -3.745050748560776E+08, -2.662650871031626E+07,
2460812.500000000, A.D. 2025-May-17 00:00:00.0000, -2.776758613749637E+06, -3.744801494481909E+08, -2.611323837987524E+07,
2460819.500000000, A.D. 2025-May-24 00:00:00.0000, 7.946785474022191E+06, -3.741116410379784E+08, -2.557600603695020E+07,
2460826.500000000, A.D. 2025-May-31 00:00:00.0000, 1.866301187712179E+07, -3.733989806421326E+08, -2.501524259837183E+07,
2460833.500000000, A.D. 2025-Jun-07 00:00:00.0000, 2.936201026591102E+07, -3.723418126500282E+08, -2.443139634783119E+07,
2460840.500000000, A.D. 2025-Jun-14 00:00:00.0000, 4.003382049793647E+07, -3.709399961404004E+08, -2.382493290246926E+07,
2460847.500000000, A.D. 2025-Jun-21 00:00:00.0000, 5.066843080589234E+07, -3.691936091248989E+08, -2.319633532577366E+07,
2460854.500000000, A.D. 2025-Jun-28 00:00:00.0000, 6.125577832899170E+07, -3.671029539606634E+08, -2.254610452905519E+07,
2460861.500000000, A.D. 2025-Jul-05 00:00:00.0000, 7.178575049041496E+07, -3.646685617796050E+08, -2.187475964483827E+07,
2460868.500000000, A.D. 2025-Jul-12 00:00:00.0000, 8.224818605111654E+07, -3.618911967393340E+08, -2.118283832686974E+07,
2460875.500000000, A.D. 2025-Jul-19 00:00:00.0000, 9.263287605433935E+07, -3.587718606684757E+08, -2.047089703927407E+07,
2460882.500000000, A.D. 2025-Jul-26 00:00:00.0000, 1.029295648982851E+08, -3.553117981610861E+08, -1.973951135716550E+07,
2460889.500000000, A.D. 2025-Aug-02 00:00:00.0000, 1.131279516312614E+08, -3.515125020973079E+08, -1.898927628166783E+07,
2460896.500000000, A.D. 2025-Aug-09 00:00:00.0000, 1.232176915227934E+08, -3.473757196035883E+08, -1.822080657157940E+07,
2460903.500000000, A.D. 2025-Aug-16 00:00:00.0000, 1.331883980192598E+08, -3.429034585145403E+08, -1.743473710275868E+07,
2460910.500000000, A.D. 2025-Aug-23 00:00:00.0000, 1.430296454091663E+08, -3.380979943195289E+08, -1.663172327919364E+07,
2460917.500000000, A.D. 2025-Aug-30 00:00:00.0000, 1.527309725592973E+08, -3.329618768788007E+08, -1.581244146549752E+07,
2460924.500000000, A.D. 2025-Sep-06 00:00:00.0000, 1.622818863358009E+08, -3.274979359044859E+08, -1.497758922649501E+07,
2460931.500000000, A.D. 2025-Sep-13 00:00:00.0000, 1.716718630726607E+08, -3.217092876795575E+08, -1.412788542083989E+07,
2460938.500000000, A.D. 2025-Sep-20 00:00:00.0000, 1.808903513974625E+08, -3.155993446456970E+08, -1.326407058052306E+07,
2460945.500000000, A.D. 2025-Sep-27 00:00:00.0000, 1.899267775132919E+08, -3.091718247355764E+08, -1.238690741618834E+07,
2460952.500000000, A.D. 2025-Oct-04 00:00:00.0000, 1.987705509614808E+08, -3.024307598966491E+08, -1.149718121604806E+07,
2460959.500000000, A.D. 2025-Oct-11 00:00:00.0000, 2.074110705338053E+08, -2.953805047323651E+08, -1.059570017779776E+07,
2460966.500000000, A.D. 2025-Oct-18 00:00:00.0000, 2.158377306615703E+08, -2.880257455146673E+08, -9.683295718379587E+06,
2460973.500000000, A.D. 2025-Oct-25 00:00:00.0000, 2.240399284662790E+08, -2.803715095329701E+08, -8.760822769667983E+06,
2460980.500000000, A.D. 2025-Nov-01 00:00:00.0000, 2.320070715571416E+08, -2.724231747366232E+08, -7.829160058370203E+06,
2460987.500000000, A.D. 2025-Nov-08 00:00:00.0000, 2.397285866559457E+08, -2.641864796695762E+08, -6.889210371662796E+06,
2460994.500000000, A.D. 2025-Nov-15 00:00:00.0000, 2.471939292446277E+08, -2.556675337169014E+08, -5.941900822535992E+06,
2461001.500000000, A.D. 2025-Nov-22 00:00:00.0000, 2.543925946893126E+08, -2.468728274001645E+08, -4.988183128922269E+06,
2461008.500000000, A.D. 2025-Nov-29 00:00:00.0000, 2.613141307404987E+08, -2.378092415424128E+08, -4.029033794185147E+06,
2461015.500000000, A.D. 2025-Dec-06 00:00:00.0000, 2.679481491819848E+08, -2.284840553901963E+08, -3.065453985171229E+06,
2461022.500000000, A.D. 2025-Dec-13 00:00:00.0000, 2.742843371084269E+08, -2.189049570039791E+08, -2.098469416974455E+06,
2461029.500000000, A.D. 2025-Dec-20 00:00:00.0000, 2.803124713718363E+08, -2.090800548253866E+08, -1.129130474802747E+06,
2461036.500000000, A.D. 2025-Dec-27 00:00:00.0000, 2.860224351723672E+08, -1.990178877570176E+08, -1.585122555649579E+05,
2461043.500000000, A.D. 2026-Jan-03 00:00:00.0000, 2.914042353816617E+08, -1.887274342916749E+08, 8.122855620905310E+05,
2461050.500000000, A.D. 2026-Jan-10 00:00:00.0000, 2.964480207529811E+08, -1.782181212831927E+08, 1.782138961973414E+06,
2461057.500000000, A.D. 2026-Jan-17 00:00:00.0000, 3.011441012921287E+08, -1.674998323556585E+08, 2.749899928760171E+06,
2461064.500000000, A.D. 2026-Jan-24 00:00:00.0000, 3.054829689045444E+08, -1.565829158263096E+08, 3.714396884718068E+06,
2461071.500000000, A.D. 2026-Jan-31 00:00:00.0000, 3.094553193728392E+08, -1.454781920407152E+08, 4.674435231853753E+06,
2461078.500000000, A.D. 2026-Feb-07 00:00:00.0000, 3.130520757458494E+08, -1.341969600609403E+08, 5.628797998917758E+06,
2461085.500000000, A.D. 2026-Feb-14 00:00:00.0000, 3.162644133970936E+08, -1.227510035925106E+08, 6.576246577633262E+06,
2461092.500000000, A.D. 2026-Feb-21 00:00:00.0000, 3.190837871362298E+08, -1.111525954263476E+08, 7.515521568059407E+06,
2461099.500000000, A.D. 2026-Feb-28 00:00:00.0000, 3.215019592868041E+08, -9.941449908552250E+07, 8.445343936262511E+06,
2461106.500000000, A.D. 2026-Mar-07 00:00:00.0000, 3.235110266662728E+08, -8.754996947040012E+07, 9.364416524122626E+06,
2461113.500000000, A.D. 2026-Mar-14 00:00:00.0000, 3.251034492213418E+08, -7.557275467485783E+07, 1.027142547630009E+07,
2461120.500000000, A.D. 2026-Mar-21 00:00:00.0000, 3.262720820616956E+08, -6.349709590900841E+07, 1.116504166813625E+07,
2461127.500000000, A.D. 2026-Mar-28 00:00:00.0000, 3.270102088258454E+08, -5.133772432922888E+07, 1.204392241320705E+07,
2461134.500000000, A.D. 2026-Apr-04 00:00:00.0000, 3.273115756972675E+08, -3.910985556545296E+07, 1.290671343630326E+07,
2461141.500000000, A.D. 2026-Apr-11 00:00:00.0000, 3.271704262448793E+08, -2.682918212451149E+07, 1.375205106542775E+07,
2461148.500000000, A.D. 2026-Apr-18 00:00:00.0000, 3.265815371260825E+08, -1.451186349210063E+07, 1.457856463472932E+07,
2461155.500000000, A.D. 2026-Apr-25 00:00:00.0000, 3.255402545554152E+08, -2.174513734761537E+06, 1.538487910138271E+07,
2461162.500000000, A.D. 2026-May-02 00:00:00.0000, 3.240425314039686E+08, 1.016581354908201E+07, 1.616961787597179E+07,
2461169.500000000, A.D. 2026-May-09 00:00:00.0000, 3.220849648644273E+08, 2.249164303607192E+07, 1.693140585270295E+07,
2461176.500000000, A.D. 2026-May-16 00:00:00.0000, 3.196648348408810E+08, 3.478509854310483E+07, 1.766887261654400E+07,
2461183.500000000, A.D. 2026-May-23 00:00:00.0000, 3.167801428634128E+08, 4.702792812594037E+07, 1.838065590358697E+07,
2461190.500000000, A.D. 2026-May-30 00:00:00.0000, 3.134296491784130E+08, 5.920153387461619E+07, 1.906540552864825E+07,
2461197.500000000, A.D. 2026-Jun-06 00:00:00.0000, 3.096129074116758E+08, 7.128700324849541E+07, 1.972178753722762E+07,
2461204.500000000, A.D. 2026-Jun-13 00:00:00.0000, 3.053303001471519E+08, 8.326514223627846E+07, 2.034848825174743E+07,
2461211.500000000, A.D. 2026-Jun-20 00:00:00.0000, 3.005830745674264E+08, 9.511651333116385E+07, 2.094421848383675E+07,
2461218.500000000, A.D. 2026-Jun-27 00:00:00.0000, 2.953733760883675E+08, 1.068214780143954E+08, 2.150771802518873E+07,
2461225.500000000, A.D. 2026-Jul-04 00:00:00.0000, 2.897042796014807E+08, 1.183602429668856E+08, 2.203776033484727E+07,
2461232.500000000, A.D. 2026-Jul-11 00:00:00.0000, 2.835798181753440E+08, 1.297129098297412E+08, 2.253315736625656E+07,
2461239.500000000, A.D. 2026-Jul-18 00:00:00.0000, 2.770050088943956E+08, 1.408595284470938E+08, 2.299276450132199E+07,
2461246.500000000, A.D. 2026-Jul-25 00:00:00.0000, 2.699858754385616E+08, 1.517801534534051E+08, 2.341548555946615E+07,
2461253.500000000, A.D. 2026-Aug-01 00:00:00.0000, 2.625294670306576E+08, 1.624549039659204E+08, 2.380027783990784E+07,
2461260.500000000, A.D. 2026-Aug-08 00:00:00.0000, 2.546438735530712E+08, 1.728640261026257E+08, 2.414615713800648E+07,
2461267.500000000, A.D. 2026-Aug-15 00:00:00.0000, 2.463382368508519E+08, 1.829879584749010E+08, 2.445220269432300E+07,
2461274.500000000, A.D. 2026-Aug-22 00:00:00.0000, 2.376227570747866E+08, 1.928074015127121E+08, 2.471756220102666E+07,
2461281.500000000, A.D. 2026-Aug-29 00:00:00.0000, 2.285086914113227E+08, 2.023033888421085E+08, 2.494145691790842E+07,
2461288.500000000, A.D. 2026-Sep-05 00:00:00.0000, 2.190083470272799E+08, 2.114573573969665E+08, 2.512318642402288E+07,
$$EOE